GLOBALSTAR M075         
1 37192U 10054E   24201.53602981 -.00000094  00000+0  52539-4 0  9996
2 37192  51.9946 114.3867 0000491  46.6237 125.1143 12.62261796633999
GLOBALSTAR M073         
1 37193U 10054F   24201.50387057 -.00000090  00000+0  78935-4 0  9992
2 37193  52.0076  28.0510 0000842  73.7908 310.6321 12.62267139635828
GLOBALSTAR M083         
1 37739U 11033A   24201.60878925 -.00000096  00000+0  44715-4 0  9991
2 37739  51.9881 336.9161 0000675 120.0442 323.0751 12.62262371604859
GLOBALSTAR M088         
1 37740U 11033B   24201.51661056 -.00000064  00000+0  22089-3 0  9992
2 37740  51.9715 242.9692 0000337 177.9167 326.2702 12.62265350600387
GLOBALSTAR M091         
1 37741U 11033C   24201.45262612 -.00000082  00000+0  12070-3 0  9990
2 37741  51.9969 206.1247 0000315 211.6402 300.1233 12.62264868601161
GLOBALSTAR M085         
1 37742U 11033D   24201.81838503 -.00000105  00000+0 -64704-5 0  9999
2 37742  51.9853 156.3408 0000100 353.1927  82.8935 12.62263484602218
GLOBALSTAR M081         
1 37743U 11033E   24201.62832894 -.00000118  00000+0 -77433-4 0  9992
2 37743  51.9942 159.5021 0000324 326.7476 204.5942 12.62267003601847
GLOBALSTAR M089         
1 37744U 11033F   24201.51071101 -.00000105  00000+0 -65838-5 0  9990
2 37744  51.9928 114.1536 0000845  34.1500 140.9850 12.62265994602676
